<?xml version="1.0" encoding="UTF-8"?>
<ndm xmlns:xsi="http://www.w3.org/2001/XMLSchema-instance" xsi:noNamespaceSchemaLocation="https://sanaregistry.org/r/ndmxml_unqualified/ndmxml-2.0.0-master-2.0.xsd">
<omm id="CCSDS_OMM_VERS" version="2.0">
<header><CREATION_DATE/><ORIGINATOR/></header><body><segment><metadata><OBJECT_NAME>ONEWEB-0427</OBJECT_NAME><OBJECT_ID>2021-132AG</OBJECT_ID><CENTER_NAME>EARTH</CENTER_NAME><REF_FRAME>TEME</REF_FRAME><TIME_SYSTEM>UTC</TIME_SYSTEM><MEAN_ELEMENT_THEORY>SGP4</MEAN_ELEMENT_THEORY></metadata><data><meanElements><EPOCH>2025-11-07T04:27:03.320640</EPOCH><MEAN_MOTION>13.18687587</MEAN_MOTION><ECCENTRICITY>.00016671</ECCENTRICITY><INCLINATION>87.9227</INCLINATION><RA_OF_ASC_NODE>19.5237</RA_OF_ASC_NODE><ARG_OF_PERICENTER>95.2107</ARG_OF_PERICENTER><MEAN_ANOMALY>264.9215</MEAN_ANOMALY></meanElements><tleParameters><EPHEMERIS_TYPE>0</EPHEMERIS_TYPE><CLASSIFICATION_TYPE>U</CLASSIFICATION_TYPE><NORAD_CAT_ID>50499</NORAD_CAT_ID><ELEMENT_SET_NO>999</ELEMENT_SET_NO><REV_AT_EPOCH>19235</REV_AT_EPOCH><BSTAR>.15251832E-3</BSTAR><MEAN_MOTION_DOT>.73E-6</MEAN_MOTION_DOT><MEAN_MOTION_DDOT>0</MEAN_MOTION_DDOT></tleParameters></data></segment></body></omm>
<omm id="CCSDS_OMM_VERS" version="2.0">
<header><CREATION_DATE/><ORIGINATOR/></header><body><segment><metadata><OBJECT_NAME>ONEWEB-0429</OBJECT_NAME><OBJECT_ID>2021-132AH</OBJECT_ID><CENTER_NAME>EARTH</CENTER_NAME><REF_FRAME>TEME</REF_FRAME><TIME_SYSTEM>UTC</TIME_SYSTEM><MEAN_ELEMENT_THEORY>SGP4</MEAN_ELEMENT_THEORY></metadata><data><meanElements><EPOCH>2025-11-07T05:57:20.183328</EPOCH><MEAN_MOTION>13.18686568</MEAN_MOTION><ECCENTRICITY>.00019653</ECCENTRICITY><INCLINATION>87.9226</INCLINATION><RA_OF_ASC_NODE>19.5427</RA_OF_ASC_NODE><ARG_OF_PERICENTER>101.7774</ARG_OF_PERICENTER><MEAN_ANOMALY>258.3579</MEAN_ANOMALY></meanElements><tleParameters><EPHEMERIS_TYPE>0</EPHEMERIS_TYPE><CLASSIFICATION_TYPE>U</CLASSIFICATION_TYPE><NORAD_CAT_ID>50500</NORAD_CAT_ID><ELEMENT_SET_NO>999</ELEMENT_SET_NO><REV_AT_EPOCH>19233</REV_AT_EPOCH><BSTAR>-.33360603E-4</BSTAR><MEAN_MOTION_DOT>0</MEAN_MOTION_DOT><MEAN_MOTION_DDOT>0</MEAN_MOTION_DDOT></tleParameters></data></segment></body></omm>
<omm id="CCSDS_OMM_VERS" version="2.0">
<header><CREATION_DATE/><ORIGINATOR/></header><body><segment><metadata><OBJECT_NAME>ONEWEB-0430</OBJECT_NAME><OBJECT_ID>2021-132AJ</OBJECT_ID><CENTER_NAME>EARTH</CENTER_NAME><REF_FRAME>TEME</REF_FRAME><TIME_SYSTEM>UTC</TIME_SYSTEM><MEAN_ELEMENT_THEORY>SGP4</MEAN_ELEMENT_THEORY></metadata><data><meanElements><EPOCH>2025-11-07T05:40:42.420576</EPOCH><MEAN_MOTION>13.18687525</MEAN_MOTION><ECCENTRICITY>.00020955</ECCENTRICITY><INCLINATION>87.9225</INCLINATION><RA_OF_ASC_NODE>19.5393</RA_OF_ASC_NODE><ARG_OF_PERICENTER>95.6238</ARG_OF_PERICENTER><MEAN_ANOMALY>264.5133</MEAN_ANOMALY></meanElements><tleParameters><EPHEMERIS_TYPE>0</EPHEMERIS_TYPE><CLASSIFICATION_TYPE>U</CLASSIFICATION_TYPE><NORAD_CAT_ID>50501</NORAD_CAT_ID><ELEMENT_SET_NO>999</ELEMENT_SET_NO><REV_AT_EPOCH>19237</REV_AT_EPOCH><BSTAR>-.70391838E-4</BSTAR><MEAN_MOTION_DOT>-.15E-6</MEAN_MOTION_DOT><MEAN_MOTION_DDOT>0</MEAN_MOTION_DDOT></tleParameters></data></segment></body></omm>
<omm id="CCSDS_OMM_VERS" version="2.0">
<header><CREATION_DATE/><ORIGINATOR/></header><body><segment><metadata><OBJECT_NAME>ONEWEB-0432</OBJECT_NAME><OBJECT_ID>2021-132AK</OBJECT_ID><CENTER_NAME>EARTH</CENTER_NAME><REF_FRAME>TEME</REF_FRAME><TIME_SYSTEM>UTC</TIME_SYSTEM><MEAN_ELEMENT_THEORY>SGP4</MEAN_ELEMENT_THEORY></metadata><data><meanElements><EPOCH>2025-11-07T06:26:14.976960</EPOCH><MEAN_MOTION>13.18672629</MEAN_MOTION><ECCENTRICITY>.00017315</ECCENTRICITY><INCLINATION>87.9222</INCLINATION><RA_OF_ASC_NODE>19.5075</RA_OF_ASC_NODE><ARG_OF_PERICENTER>70.2290</ARG_OF_PERICENTER><MEAN_ANOMALY>289.9028</MEAN_ANOMALY></meanElements><tleParameters><EPHEMERIS_TYPE>0</EPHEMERIS_TYPE><CLASSIFICATION_TYPE>U</CLASSIFICATION_TYPE><NORAD_CAT_ID>50502</NORAD_CAT_ID><ELEMENT_SET_NO>999</ELEMENT_SET_NO><REV_AT_EPOCH>19233</REV_AT_EPOCH><BSTAR>-.30035182E-4</BSTAR><MEAN_MOTION_DOT>.1E-7</MEAN_MOTION_DOT><MEAN_MOTION_DDOT>0</MEAN_MOTION_DDOT></tleParameters></data></segment></body></omm>
<omm id="CCSDS_OMM_VERS" version="2.0">
<header><CREATION_DATE/><ORIGINATOR/></header><body><segment><metadata><OBJECT_NAME>ONEWEB-0440</OBJECT_NAME><OBJECT_ID>2021-132AL</OBJECT_ID><CENTER_NAME>EARTH</CENTER_NAME><REF_FRAME>TEME</REF_FRAME><TIME_SYSTEM>UTC</TIME_SYSTEM><MEAN_ELEMENT_THEORY>SGP4</MEAN_ELEMENT_THEORY></metadata><data><meanElements><EPOCH>2025-11-07T06:09:12.974688</EPOCH><MEAN_MOTION>13.18686795</MEAN_MOTION><ECCENTRICITY>.00018723</ECCENTRICITY><INCLINATION>87.9227</INCLINATION><RA_OF_ASC_NODE>19.5263</RA_OF_ASC_NODE><ARG_OF_PERICENTER>112.7787</ARG_OF_PERICENTER><MEAN_ANOMALY>247.3543</MEAN_ANOMALY></meanElements><tleParameters><EPHEMERIS_TYPE>0</EPHEMERIS_TYPE><CLASSIFICATION_TYPE>U</CLASSIFICATION_TYPE><NORAD_CAT_ID>50503</NORAD_CAT_ID><ELEMENT_SET_NO>999</ELEMENT_SET_NO><REV_AT_EPOCH>19232</REV_AT_EPOCH><BSTAR>.13248506E-4</BSTAR><MEAN_MOTION_DOT>.18E-6</MEAN_MOTION_DOT><MEAN_MOTION_DDOT>0</MEAN_MOTION_DDOT></tleParameters></data></segment></body></omm>
<omm id="CCSDS_OMM_VERS" version="2.0">
<header><CREATION_DATE/><ORIGINATOR/></header><body><segment><metadata><OBJECT_NAME>ONEWEB-0450</OBJECT_NAME><OBJECT_ID>2021-132AM</OBJECT_ID><CENTER_NAME>EARTH</CENTER_NAME><REF_FRAME>TEME</REF_FRAME><TIME_SYSTEM>UTC</TIME_SYSTEM><MEAN_ELEMENT_THEORY>SGP4</MEAN_ELEMENT_THEORY></metadata><data><meanElements><EPOCH>2025-11-07T05:59:54.468672</EPOCH><MEAN_MOTION>13.18684332</MEAN_MOTION><ECCENTRICITY>.00020953</ECCENTRICITY><INCLINATION>87.9224</INCLINATION><RA_OF_ASC_NODE>19.5509</RA_OF_ASC_NODE><ARG_OF_PERICENTER>101.3712</ARG_OF_PERICENTER><MEAN_ANOMALY>258.7655</MEAN_ANOMALY></meanElements><tleParameters><EPHEMERIS_TYPE>0</EPHEMERIS_TYPE><CLASSIFICATION_TYPE>U</CLASSIFICATION_TYPE><NORAD_CAT_ID>50504</NORAD_CAT_ID><ELEMENT_SET_NO>999</ELEMENT_SET_NO><REV_AT_EPOCH>19235</REV_AT_EPOCH><BSTAR>-.11777728E-3</BSTAR><MEAN_MOTION_DOT>-.34E-6</MEAN_MOTION_DOT><MEAN_MOTION_DDOT>0</MEAN_MOTION_DDOT></tleParameters></data></segment></body></omm>
<omm id="CCSDS_OMM_VERS" version="2.0">
<header><CREATION_DATE/><ORIGINATOR/></header><body><segment><metadata><OBJECT_NAME>ONEWEB-0410</OBJECT_NAME><OBJECT_ID>2022-012A</OBJECT_ID><CENTER_NAME>EARTH</CENTER_NAME><REF_FRAME>TEME</REF_FRAME><TIME_SYSTEM>UTC</TIME_SYSTEM><MEAN_ELEMENT_THEORY>SGP4</MEAN_ELEMENT_THEORY></metadata><data><meanElements><EPOCH>2025-11-07T06:08:25.397664</EPOCH><MEAN_MOTION>13.17651628</MEAN_MOTION><ECCENTRICITY>.00002221</ECCENTRICITY><INCLINATION>87.9134</INCLINATION><RA_OF_ASC_NODE>49.9719</RA_OF_ASC_NODE><ARG_OF_PERICENTER>28.1356</ARG_OF_PERICENTER><MEAN_ANOMALY>331.9788</MEAN_ANOMALY></meanElements><tleParameters><EPHEMERIS_TYPE>0</EPHEMERIS_TYPE><CLASSIFICATION_TYPE>U</CLASSIFICATION_TYPE><NORAD_CAT_ID>51622</NORAD_CAT_ID><ELEMENT_SET_NO>999</ELEMENT_SET_NO><REV_AT_EPOCH>18447</REV_AT_EPOCH><BSTAR>-.14062008E-3</BSTAR><MEAN_MOTION_DOT>-.42E-6</MEAN_MOTION_DOT><MEAN_MOTION_DDOT>0</MEAN_MOTION_DDOT></tleParameters></data></segment></body></omm>
<omm id="CCSDS_OMM_VERS" version="2.0">
<header><CREATION_DATE/><ORIGINATOR/></header><body><segment><metadata><OBJECT_NAME>ONEWEB-0411</OBJECT_NAME><OBJECT_ID>2022-012B</OBJECT_ID><CENTER_NAME>EARTH</CENTER_NAME><REF_FRAME>TEME</REF_FRAME><TIME_SYSTEM>UTC</TIME_SYSTEM><MEAN_ELEMENT_THEORY>SGP4</MEAN_ELEMENT_THEORY></metadata><data><meanElements><EPOCH>2025-11-07T06:30:00.353952</EPOCH><MEAN_MOTION>13.10375005</MEAN_MOTION><ECCENTRICITY>.00020375</ECCENTRICITY><INCLINATION>87.8788</INCLINATION><RA_OF_ASC_NODE>80.5040</RA_OF_ASC_NODE><ARG_OF_PERICENTER>88.7292</ARG_OF_PERICENTER><MEAN_ANOMALY>271.4069</MEAN_ANOMALY></meanElements><tleParameters><EPHEMERIS_TYPE>0</EPHEMERIS_TYPE><CLASSIFICATION_TYPE>U</CLASSIFICATION_TYPE><NORAD_CAT_ID>51623</NORAD_CAT_ID><ELEMENT_SET_NO>999</ELEMENT_SET_NO><REV_AT_EPOCH>18022</REV_AT_EPOCH><BSTAR>.1846544E-2</BSTAR><MEAN_MOTION_DOT>.657E-5</MEAN_MOTION_DOT><MEAN_MOTION_DDOT>0</MEAN_MOTION_DDOT></tleParameters></data></segment></body></omm>

</ndm>
