ONEWEB-0427             
1 50499U 21132AG  25311.18545510  .00000073  00000+0  15252-3 0  9994
2 50499  87.9227  19.5237 0001667  95.2107 264.9215 13.18687587192358
ONEWEB-0429             
1 50500U 21132AH  25311.24815027  .00000000  00000+0 -33361-4 0  9990
2 50500  87.9226  19.5427 0001965 101.7774 258.3579 13.18686568192331
ONEWEB-0430             
1 50501U 21132AJ  25311.23660209 -.00000015  00000+0 -70392-4 0  9992
2 50501  87.9225  19.5393 0002095  95.6238 264.5133 13.18687525192377
ONEWEB-0432             
1 50502U 21132AK  25311.26822890  .00000001  00000+0 -30035-4 0  9996
2 50502  87.9222  19.5075 0001731  70.2290 289.9028 13.18672629192334
ONEWEB-0440             
1 50503U 21132AL  25311.25640017  .00000018  00000+0  13249-4 0  9990
2 50503  87.9227  19.5263 0001872 112.7787 247.3543 13.18686795192326
ONEWEB-0450             
1 50504U 21132AM  25311.24993598 -.00000034  00000+0 -11778-3 0  9999
2 50504  87.9224  19.5509 0002095 101.3712 258.7655 13.18684332192355
ONEWEB-0410             
1 51622U 22012A   25311.25584951 -.00000042  00000+0 -14062-3 0  9997
2 51622  87.9134  49.9719 0000222  28.1356 331.9788 13.17651628184473
ONEWEB-0411             
1 51623U 22012B   25311.27083743  .00000657  00000+0  18465-2 0  9993
2 51623  87.8788  80.5040 0002037  88.7292 271.4069 13.10375005180227
